{"type": "FeatureCollection", "features": [ {"type": "Feature", "properties": {"norad_id": 36402, "name": "COSMOS 2460 (732)", "group": "gnss", "lat": -35.108202133246756, "lon": -58.18289875099755, "alt_km": 19129.214657460536, "timestamp": "2025-12-20T18:51:31.956813+00:00", "meta": {"OBJECT_NAME": "COSMOS 2460 (732)", "OBJECT_ID": "2010-007C", "EPOCH": "2025-12-19T13:42:43.098624", "MEAN_MOTION": 2.131063, "ECCENTRICITY": 0.0002543, "INCLINATION": 65.526, "RA_OF_ASC_NODE": 320.5423, "ARG_OF_PERICENTER": 279.9868, "MEAN_ANOMALY": 189.087, "EPHEMERIS_TYPE": 0, "CLASSIFICATION_TYPE": "U", "NORAD_CAT_ID": 36402, "ELEMENT_SET_NO": 999, "REV_AT_EPOCH": 12290, "BSTAR": 0, "MEAN_MOTION_DOT": -5.7e-07, "MEAN_MOTION_DDOT": 0}, "tle": {"line1": "1 36402U 10007C   25353.57133216 -.00000057  00000+0  00000+0 0  9990", "line2": "2 36402  65.5260 320.5423 0002543 279.9868 189.0870  2.13106300122906"}}, "geometry": {"type": "Point", "coordinates": [-58.18289875099755, -35.108202133246756]}}, {"type": "Feature", "properties": {"norad_id": 36585, "name": "GPS BIIF-1  (PRN 25)", "group": "gnss", "lat": -40.75602212161229, "lon": 74.05309072793825, "alt_km": 20516.863642692802, "timestamp": "2025-12-20T18:51:31.956825+00:00", "meta": {"OBJECT_NAME": "GPS BIIF-1  (PRN 25)", "OBJECT_ID": "2010-022A", "EPOCH": "2025-12-20T02:58:58.243008", "MEAN_MOTION": 2.00553637, "ECCENTRICITY": 0.01264155, "INCLINATION": 54.299, "RA_OF_ASC_NODE": 215.7761, "ARG_OF_PERICENTER": 65.1663, "MEAN_ANOMALY": 50.4936, "EPHEMERIS_TYPE": 0, "CLASSIFICATION_TYPE": "U", "NORAD_CAT_ID": 36585, "ELEMENT_SET_NO": 999, "REV_AT_EPOCH": 11400, "BSTAR": 0, "MEAN_MOTION_DOT": 8e-07, "MEAN_MOTION_DDOT": 0}, "tle": {"line1": "1 36585U 10022A   25354.12428522  .00000080  00000+0  00000+0 0  9993", "line2": "2 36585  54.2990 215.7761 0126415  65.1663  50.4936  2.00553637114007"}}, "geometry": {"type": "Point", "coordinates": [74.05309072793825, -40.75602212161229]}}, {"type": "Feature", "properties": {"norad_id": 36828, "name": "BEIDOU-2 IGSO-1 (C06)", "group": "gnss", "lat": -33.97417764612465, "lon": 135.51302168165287, "alt_km": 35828.545864266714, "timestamp": "2025-12-20T18:51:31.956836+00:00", "meta": {"OBJECT_NAME": "BEIDOU-2 IGSO-1 (C06)", "OBJECT_ID": "2010-036A", "EPOCH": "2025-12-14T21:38:21.623424", "MEAN_MOTION": 1.00275796, "ECCENTRICITY": 0.00512569, "INCLINATION": 54.2866, "RA_OF_ASC_NODE": 164.6279, "ARG_OF_PERICENTER": 215.8888, "MEAN_ANOMALY": 135.7931, "EPHEMERIS_TYPE": 0, "CLASSIFICATION_TYPE": "U", "NORAD_CAT_ID": 36828, "ELEMENT_SET_NO": 999, "REV_AT_EPOCH": 5624, "BSTAR": 0, "MEAN_MOTION_DOT": -2.4e-07, "MEAN_MOTION_DDOT": 0}, "tle": {"line1": "1 36828U 10036A   25348.90163916 -.00000024  00000+0  00000+0 0  9999", "line2": "2 36828  54.2866 164.6279 0051256 215.8888 135.7931  1.00275796 56247"}}, "geometry": {"type": "Point", "coordinates": [135.51302168165287, -33.97417764612465]}}, {"type": "Feature", "properties": {"norad_id": 37210, "name": "BEIDOU-2 G4 (C04)", "group": "gnss", "lat": 3.132399324132443, "lon": 172.47650953333834, "alt_km": 35785.841062442276, "timestamp": "2025-12-20T18:51:31.956849+00:00", "meta": {"OBJECT_NAME": "BEIDOU-2 G4 (C04)", "OBJECT_ID": "2010-057A", "EPOCH": "2025-12-20T13:59:26.739168", "MEAN_MOTION": 1.00272023, "ECCENTRICITY": 0.00104282, "INCLINATION": 3.2031, "RA_OF_ASC_NODE": 69.9094, "ARG_OF_PERICENTER": 192.8314, "MEAN_ANOMALY": 196.6191, "EPHEMERIS_TYPE": 0, "CLASSIFICATION_TYPE": "U", "NORAD_CAT_ID": 37210, "ELEMENT_SET_NO": 999, "REV_AT_EPOCH": 5550, "BSTAR": 0, "MEAN_MOTION_DOT": -9e-07, "MEAN_MOTION_DDOT": 0}, "tle": {"line1": "1 37210U 10057A   25354.58294837 -.00000090  00000+0  00000+0 0  9999", "line2": "2 37210   3.2031  69.9094 0010428 192.8314 196.6191  1.00272023 55509"}}, "geometry": {"type": "Point", "coordinates": [172.47650953333834, 3.132399324132443]}}, {"type": "Feature", "properties": {"norad_id": 37256, "name": "BEIDOU-2 IGSO-2 (C07)", "group": "gnss", "lat": -19.166576697002263, "lon": 112.33031616272521, "alt_km": 35584.72356001003, "timestamp": "2025-12-20T18:51:31.956861+00:00", "meta": {"OBJECT_NAME": "BEIDOU-2 IGSO-2 (C07)", "OBJECT_ID": "2010-068A", "EPOCH": "2025-12-20T13:52:30.782784", "MEAN_MOTION": 1.00284035, "ECCENTRICITY": 0.00484196, "INCLINATION": 47.8716, "RA_OF_ASC_NODE": 274.0527, "ARG_OF_PERICENTER": 216.3627, "MEAN_ANOMALY": 275.0459, "EPHEMERIS_TYPE": 0, "CLASSIFICATION_TYPE": "U", "NORAD_CAT_ID": 37256, "ELEMENT_SET_NO": 999, "REV_AT_EPOCH": 5500, "BSTAR": 0, "MEAN_MOTION_DOT": -1.89e-06, "MEAN_MOTION_DDOT": 0}, "tle": {"line1": "1 37256U 10068A   25354.57813406 -.00000189  00000+0  00000+0 0  9998", "line2": "2 37256  47.8716 274.0527 0048419 216.3627 275.0459  1.00284035 55003"}}, "geometry": {"type": "Point", "coordinates": [112.33031616272521, -19.166576697002263]}}, {"type": "Feature", "properties": {"norad_id": 37384, "name": "BEIDOU-2 IGSO-3 (C08)", "group": "gnss", "lat": 59.70622263965177, "lon": 106.5717081292953, "alt_km": 35832.301735805115, "timestamp": "2025-12-20T18:51:31.956873+00:00", "meta": {"OBJECT_NAME": "BEIDOU-2 IGSO-3 (C08)", "OBJECT_ID": "2011-013A", "EPOCH": "2025-12-20T13:44:20.685696", "MEAN_MOTION": 1.00268973, "ECCENTRICITY": 0.0035383, "INCLINATION": 62.1535, "RA_OF_ASC_NODE": 41.8418, "ARG_OF_PERICENTER": 187.6388, "MEAN_ANOMALY": 173.3807, "EPHEMERIS_TYPE": 0, "CLASSIFICATION_TYPE": "U", "NORAD_CAT_ID": 37384, "ELEMENT_SET_NO": 999, "REV_AT_EPOCH": 5387, "BSTAR": 0, "MEAN_MOTION_DOT": -1.64e-06, "MEAN_MOTION_DDOT": 0}, "tle": {"line1": "1 37384U 11013A   25354.57246164 -.00000164  00000+0  00000+0 0  9995", "line2": "2 37384  62.1535  41.8418 0035383 187.6388 173.3807  1.00268973 53876"}}, "geometry": {"type": "Point", "coordinates": [106.5717081292953, 59.70622263965177]}}, {"type": "Feature", "properties": {"norad_id": 37605, "name": "GSAT-8 (GAGAN/PRN 127)", "group": "gnss", "lat": -0.4490314834068426, "lon": 67.61259591953534, "alt_km": 35821.07752160463, "timestamp": "2025-12-20T18:51:31.956885+00:00", "meta": {"OBJECT_NAME": "GSAT-8 (GAGAN/PRN 127)", "OBJECT_ID": "2011-022A", "EPOCH": "2025-12-20T08:53:21.810912", "MEAN_MOTION": 1.00270839, "ECCENTRICITY": 0.00088419, "INCLINATION": 1.6683, "RA_OF_ASC_NODE": 84.1172, "ARG_OF_PERICENTER": 185.6408, "MEAN_ANOMALY": 7.8666, "EPHEMERIS_TYPE": 0, "CLASSIFICATION_TYPE": "U", "NORAD_CAT_ID": 37605, "ELEMENT_SET_NO": 999, "REV_AT_EPOCH": 5142, "BSTAR": 0, "MEAN_MOTION_DOT": 1.07e-06, "MEAN_MOTION_DDOT": 0}, "tle": {"line1": "1 37605U 11022A   25354.37039133  .00000107  00000+0  00000+0 0  9991", "line2": "2 37605   1.6683  84.1172 0008841 185.6408   7.8666  1.00270839 51428"}}, "geometry": {"type": "Point", "coordinates": [67.61259591953534, -0.4490314834068426]}}, {"type": "Feature", "properties": {"norad_id": 37763, "name": "BEIDOU-2 IGSO-4 (C09)", "group": "gnss", "lat": -43.98006429447923, "lon": 123.8059290722419, "alt_km": 35577.96659454551, "timestamp": "2025-12-20T18:51:31.956897+00:00", "meta": {"OBJECT_NAME": "BEIDOU-2 IGSO-4 (C09)", "OBJECT_ID": "2011-038A", "EPOCH": "2025-12-17T23:29:21.564384", "MEAN_MOTION": 1.00281312, "ECCENTRICITY": 0.01493143, "INCLINATION": 54.5836, "RA_OF_ASC_NODE": 167.2999, "ARG_OF_PERICENTER": 230.2426, "MEAN_ANOMALY": 136.1954, "EPHEMERIS_TYPE": 0, "CLASSIFICATION_TYPE": "U", "NORAD_CAT_ID": 37763, "ELEMENT_SET_NO": 999, "REV_AT_EPOCH": 5283, "BSTAR": 0, "MEAN_MOTION_DOT": 6.5e-07, "MEAN_MOTION_DDOT": 0}, "tle": {"line1": "1 37763U 11038A   25351.97872181  .00000065  00000+0  00000+0 0  9997", "line2": "2 37763  54.5836 167.2999 0149314 230.2426 136.1954  1.00281312 52838"}}, "geometry": {"type": "Point", "coordinates": [123.8059290722419, -43.98006429447923]}}, {"type": "Feature", "properties": {"norad_id": 37846, "name": "GSAT0101 (GALILEO-PFM)", "group": "gnss", "lat": 17.373899661201712, "lon": 154.88280060994887, "alt_km": 23228.822398398974, "timestamp": "2025-12-20T18:51:31.956911+00:00", "meta": {"OBJECT_NAME": "GSAT0101 (GALILEO-PFM)", "OBJECT_ID": "2011-060A", "EPOCH": "2025-12-18T18:24:05.988672", "MEAN_MOTION": 1.70475824, "ECCENTRICITY": 0.000318, "INCLINATION": 57.0514, "RA_OF_ASC_NODE": 346.6564, "ARG_OF_PERICENTER": 319.1021, "MEAN_ANOMALY": 40.8874, "EPHEMERIS_TYPE": 0, "CLASSIFICATION_TYPE": "U", "NORAD_CAT_ID": 37846, "ELEMENT_SET_NO": 999, "REV_AT_EPOCH": 8804, "BSTAR": 0, "MEAN_MOTION_DOT": -7.5e-07, "MEAN_MOTION_DDOT": 0}, "tle": {"line1": "1 37846U 11060A   25352.76673598 -.00000075  00000+0  00000+0 0  9995", "line2": "2 37846  57.0514 346.6564 0003180 319.1021  40.8874  1.70475824 88044"}}, "geometry": {"type": "Point", "coordinates": [154.88280060994887, 17.373899661201712]}}, {"type": "Feature", "properties": {"norad_id": 37847, "name": "GSAT0102 (GALILEO-FM2)", "group": "gnss", "lat": -20.423812492666496, "lon": -179.43019714339962, "alt_km": 23229.259008761885, "timestamp": "2025-12-20T18:51:31.956933+00:00", "meta": {"OBJECT_NAME": "GSAT0102 (GALILEO-FM2)", "OBJECT_ID": "2011-060B", "EPOCH": "2025-12-18T09:18:10.933920", "MEAN_MOTION": 1.7047603, "ECCENTRICITY": 0.0005099, "INCLINATION": 57.0522, "RA_OF_ASC_NODE": 346.6671, "ARG_OF_PERICENTER": 311.9548, "MEAN_ANOMALY": 220.8374, "EPHEMERIS_TYPE": 0, "CLASSIFICATION_TYPE": "U", "NORAD_CAT_ID": 37847, "ELEMENT_SET_NO": 999, "REV_AT_EPOCH": 8804, "BSTAR": 0, "MEAN_MOTION_DOT": -7.6e-07, "MEAN_MOTION_DDOT": 0}, "tle": {"line1": "1 37847U 11060B   25352.38762655 -.00000076  00000+0  00000+0 0  9998", "line2": "2 37847  57.0522 346.6671 0005099 311.9548 220.8374  1.70476030 88043"}}, "geometry": {"type": "Point", "coordinates": [-179.43019714339962, -20.423812492666496]}}]}